NORAD_CAT_ID,OBJECT_NAME,OBJECT_TYPE,EPOCH,MEAN_MOTION,ECCENTRICITY,INCLINATION,RA_OF_ASC_NODE,ARG_OF_PERICENTER,MEAN_ANOMALY,BSTAR,MEAN_MOTION_DOT,MEAN_MOTION_DDOT,TLE_LINE0,TLE_LINE1,TLE_LINE2,SEMIMAJOR_AXIS,PERIOD,APOGEE,PERIGEE,DECAYED
52375.0,STARLINK-3785,PAYLOAD,2023-12-14 00:23:02,15.0885136,0.0001669,53.2162,255.3132,90.1632,269.9551,0.00041106,6.262e-05,0.0,0 STARLINK-3785,1 52375U 22045AW  23348.01600371  .00006262  00000-0  41106-3 0  9994,2 52375  53.2162 255.3132 0001669  90.1632 269.9551 15.08851360 92631,6917.846,95.437,540.865,538.556,0.0
52375.0,STARLINK-3785,PAYLOAD,2023-12-14 21:03:03,15.08845445,0.0001692,53.2159,251.4475,89.8705,270.2481,0.00021705,3.168e-05,0.0,0 STARLINK-3785,1 52375U 22045AW  23348.87712388  .00003168  00000-0  21705-3 0  9995,2 52375  53.2159 251.4475 0001692  89.8705 270.2481 15.08845445 92764,6917.864,95.437,540.899,538.558,0.0
52375.0,STARLINK-3785,PAYLOAD,2023-12-14 22:38:26,15.08846711,0.0001657,53.216,251.1502,88.9175,271.2007,0.00022298,3.263e-05,0.0,0 STARLINK-3785,1 52375U 22045AW  23348.94336345  .00003263  00000-0  22298-3 0  9992,2 52375  53.2160 251.1502 0001657  88.9175 271.2007 15.08846711 92779,6917.86,95.437,540.871,538.579,0.0
52375.0,STARLINK-3785,PAYLOAD,2023-12-15 00:13:49,15.08848611,0.0001666,53.216,250.8528,89.0196,271.0987,0.00025489,3.772e-05,0.0,0 STARLINK-3785,1 52375U 22045AW  23349.00960256  .00003772  00000-0  25489-3 0  9994,2 52375  53.2160 250.8528 0001666  89.0196 271.0987 15.08848611 92785,6917.854,95.437,540.872,538.567,0.0
52375.0,STARLINK-3785,PAYLOAD,2023-12-15 22:29:14,15.08831416,0.0001666,53.216,246.6898,91.2169,268.9014,-6.5986e-05,-1.338e-05,0.0,0 STARLINK-3785,1 52375U 22045AW  23349.93697155 -.00001338  00000-0 -65986-4 0  9996,2 52375  53.2160 246.6898 0001666  91.2169 268.9014 15.08831416 92920,6917.907,95.438,540.924,538.619,0.0
52375.0,STARLINK-3785,PAYLOAD,2023-12-16 00:04:37,15.08831381,0.0001644,53.2161,246.3927,88.2007,271.9174,-7.244e-05,-1.44e-05,0.0,0 STARLINK-3785,1 52375U 22045AW  23350.00321187 -.00001440  00000-0 -72440-4 0  9992,2 52375  53.2161 246.3927 0001644  88.2007 271.9174 15.08831381 92937,6917.907,95.438,540.909,538.634,0.0
52375.0,STARLINK-3785,PAYLOAD,2023-12-16 22:20:00,15.08843745,0.0001518,53.2173,242.2282,95.1116,265.0049,6.4376e-05,7.37e-06,0.0,0 STARLINK-3785,1 52375U 22045AW  23350.93056583  .00000737  00000-0  64376-4 0  9994,2 52375  53.2173 242.2282 0001518  95.1116 265.0049 15.08843745 93075,6917.869,95.437,540.784,538.684,0.0
52375.0,STARLINK-3785,PAYLOAD,2023-12-17 19:00:01,15.08839871,0.000141,53.2174,238.3627,90.436,269.6794,0.00014485,2.018e-05,0.0,0 STARLINK-3785,1 52375U 22045AW  23351.79168869  .00002018  00000-0  14485-3 0  9999,2 52375  53.2174 238.3627 0001410  90.4360 269.6794 15.08839871 93202,6917.881,95.438,540.721,538.77,0.0
52375.0,STARLINK-3785,PAYLOAD,2023-12-17 22:10:48,15.08845477,0.0001459,53.2155,237.7697,84.9429,275.1729,0.00019646,2.841e-05,0.0,0 STARLINK-3785,1 52375U 22045AW  23351.92416709  .00002841  00000-0  19646-3 0  9991,2 52375  53.2155 237.7697 0001459  84.9429 275.1729 15.08845477 93229,6917.864,95.437,540.738,538.719,0.0
52375.0,STARLINK-3785,PAYLOAD,2023-12-17 23:46:11,15.08849086,0.0001467,53.2158,237.4717,86.5694,273.5466,0.00024457,3.607e-05,0.0,0 STARLINK-3785,1 52375U 22045AW  23351.99040514  .00003607  00000-0  24457-3 0  9992,2 52375  53.2158 237.4717 0001467  86.5694 273.5466 15.08849086 93234,6917.853,95.437,540.732,538.703,0.0
52375.0,STARLINK-3785,PAYLOAD,2023-12-18 18:50:49,15.08837562,0.0002008,53.2165,233.9025,61.6013,298.5181,1.7203e-06,-2.61e-06,0.0,0 STARLINK-3785,1 52375U 22045AW  23352.78529349 -.00000261  00000-0  17203-5 0  9995,2 52375  53.2165 233.9025 0002008  61.6013 298.5181 15.08837562 93356,6917.888,95.438,541.142,538.364,0.0
52375.0,STARLINK-3785,PAYLOAD,2023-12-18 22:01:35,15.08841204,0.0001572,53.2159,233.3051,115.6859,244.4295,-6.2566e-05,-1.284e-05,0.0,0 STARLINK-3785,1 52375U 22045AW  23352.91776623 -.00001284  00000-0 -62566-4 0  9997,2 52375  53.2159 233.3051 0001572 115.6859 244.4295 15.08841204 93371,6917.877,95.437,540.829,538.654,0.0
52375.0,STARLINK-3785,PAYLOAD,2023-12-18 23:36:58,15.08840097,0.0001493,53.2157,233.0114,78.2873,281.8287,3.3429e-05,2.44e-06,0.0,0 STARLINK-3785,1 52375U 22045AW  23352.98401037  .00000244  00000-0  33429-4 0  9997,2 52375  53.2157 233.0114 0001493  78.2873 281.8287 15.08840097 93384,6917.88,95.438,540.778,538.712,0.0
52375.0,STARLINK-3785,PAYLOAD,2023-12-19 20:16:59,15.08839471,0.0001453,53.2158,229.1448,80.9753,279.1404,-2.6255e-06,-3.3e-06,0.0,0 STARLINK-3785,1 52375U 22045AW  23353.84513202 -.00000330  00000-0 -26255-5 0  9999,2 52375  53.2158 229.1448 0001453  80.9753 279.1404 15.08839471 93514,6917.882,95.438,540.752,538.742,0.0
52375.0,STARLINK-3785,PAYLOAD,2023-12-19 23:27:45,15.08840653,0.0001489,53.2158,228.5501,79.1065,281.0095,1.9067e-05,1.5e-07,0.0,0 STARLINK-3785,1 52375U 22045AW  23353.97761180  .00000015  00000-0  19067-4 0  9993,2 52375  53.2158 228.5501 0001489  79.1065 281.0095 15.08840653 93536,6917.878,95.438,540.773,538.713,0.0
52375.0,STARLINK-3785,PAYLOAD,2023-12-20 21:43:09,15.08840638,0.0001437,53.2151,224.3888,76.382,283.7332,0.00014342,1.995e-05,0.0,0 STARLINK-3785,1 52375U 22045AW  23354.90497515  .00001995  00000-0  14342-3 0  9993,2 52375  53.2151 224.3888 0001437  76.3820 283.7332 15.08840638 93673,6917.878,95.438,540.738,538.749,0.0
52375.0,STARLINK-3785,PAYLOAD,2023-12-20 23:18:32,15.08843607,0.0001482,53.2155,224.0905,74.57,285.5456,0.00018238,2.616e-05,0.0,0 STARLINK-3785,1 52375U 22045AW  23354.97121386  .00002616  00000-0  18238-3 0  9999,2 52375  53.2155 224.0905 0001482  74.5700 285.5456 15.08843607 93688,6917.869,95.437,540.76,538.709,0.0
52375.0,STARLINK-3785,PAYLOAD,2023-12-21 21:33:57,15.08839293,0.0001407,53.2145,219.9289,82.3286,277.7866,0.00010679,1.412e-05,0.0,0 STARLINK-3785,1 52375U 22045AW  23355.89857780  .00001412  00000-0  10679-3 0  9999,2 52375  53.2145 219.9289 0001407  82.3286 277.7866 15.08839293 93828,6917.883,95.438,540.721,538.774,0.0
52375.0,STARLINK-3785,PAYLOAD,2023-12-22 21:24:44,15.08842452,0.0001463,53.2147,215.468,79.2204,280.8952,9.0072e-05,1.146e-05,0.0,0 STARLINK-3785,1 52375U 22045AW  23356.89217766  .00001146  00000-0  90072-4 0  9994,2 52375  53.2147 215.4680 0001463  79.2204 280.8952 15.08842452 93971,6917.873,95.437,540.75,538.726,0.0
52375.0,STARLINK-3785,PAYLOAD,2023-12-23 14:53:58,15.08841409,0.0001481,53.2151,212.1973,77.0378,283.078,9.6981e-05,1.256e-05,0.0,0 STARLINK-3785,1 52375U 22045AW  23357.62081761  .00001256  00000-0  96981-4 0  9997,2 52375  53.2151 212.1973 0001481  77.0378 283.0780 15.08841409 94081,6917.876,95.437,540.766,538.717,0.0
52375.0,STARLINK-3785,PAYLOAD,2023-12-23 19:40:04,15.08881187,0.0001339,53.2157,211.303,82.9073,277.2071,0.0004178,6.375e-05,0.0,0 STARLINK-3785,1 52375U 22045AW  23357.81950216  .00006375  00000-0  41780-3 0  9991,2 52375  53.2157 211.3030 0001339  82.9073 277.2071 15.08881187 94110,6917.754,95.435,540.546,538.693,0.0
52375.0,STARLINK-3785,PAYLOAD,2023-12-24 09:58:34,15.0885099,0.0001254,53.216,208.6259,94.3279,265.7857,0.0001297,1.777e-05,0.0,0 STARLINK-3785,1 52375U 22045AW  23358.41568066  .00001777  00000-0  12970-3 0  9996,2 52375  53.2160 208.6259 0001254  94.3279 265.7857 15.08850990 94209,6917.847,95.437,540.579,538.844,0.0
52375.0,STARLINK-3785,PAYLOAD,2023-12-24 14:44:46,15.08823308,0.0001219,53.2157,207.735,76.7738,283.339,-0.00011014,-2.039e-05,0.0,0 STARLINK-3785,1 52375U 22045AW  23358.61442434 -.00002039  00000-0 -11014-3 0  9990,2 52375  53.2157 207.7350 0001219  76.7738 283.3390 15.08823308 94236,6917.931,95.439,540.64,538.953,0.0
52375.0,STARLINK-3785,PAYLOAD,2023-12-24 19:30:55,15.08826575,0.0001456,53.2158,206.8425,94.4851,265.6308,-8.5248e-05,-1.644e-05,0.0,0 STARLINK-3785,1 52375U 22045AW  23358.81314236 -.00001644  00000-0 -85248-4 0  9992,2 52375  53.2158 206.8425 0001456  94.4851 265.6308 15.08826575 94260,6917.921,95.438,540.794,538.779,0.0
52375.0,STARLINK-3785,PAYLOAD,2023-12-24 21:06:18,15.08827773,0.0001458,53.2159,206.545,95.2947,264.8211,-7.3689e-05,-1.46e-05,0.0,0 STARLINK-3785,1 52375U 22045AW  23358.87938185 -.00001460  00000-0 -73689-4 0  9995,2 52375  53.2159 206.5450 0001458  95.2947 264.8211 15.08827773 94279,6917.918,95.438,540.791,538.774,0.0
52375.0,STARLINK-3785,PAYLOAD,2023-12-25 00:17:04,15.08828852,0.0001441,53.2159,205.9499,96.7152,263.4005,-6.428e-05,-1.31e-05,0.0,0 STARLINK-3785,1 52375U 22045AW  23359.01186137 -.00001310  00000-0 -64280-4 0  9995,2 52375  53.2159 205.9499 0001441  96.7152 263.4005 15.08828852 94298,6917.914,95.438,540.776,538.783,0.0
52375.0,STARLINK-3785,PAYLOAD,2023-12-25 19:21:42,15.08843075,0.0001397,53.2161,202.3816,94.9821,265.1331,-0.00017127,-3.013e-05,0.0,0 STARLINK-3785,1 52375U 22045AW  23359.80673890 -.00003013  00000-0 -17127-3 0  9998,2 52375  53.2161 202.3816 0001397  94.9821 265.1331 15.08843075 94417,6917.871,95.437,540.702,538.77,0.0
52375.0,STARLINK-3785,PAYLOAD,2023-12-25 20:57:04,15.08837743,0.0001447,53.2151,202.0842,97.7096,262.406,-0.00024924,-4.252e-05,0.0,0 STARLINK-3785,1 52375U 22045AW  23359.87297256 -.00004252  00000-0 -24924-3 0  9992,2 52375  53.2151 202.0842 0001447  97.7096 262.4060 15.08837743 94428,6917.887,95.438,540.753,538.751,0.0
52375.0,STARLINK-3785,PAYLOAD,2023-12-26 00:07:51,15.08837547,0.000143,53.215,201.4894,99.8423,260.2731,-0.0002083,-3.601e-05,0.0,0 STARLINK-3785,1 52375U 22045AW  23360.00545301 -.00003601  00000-0 -20830-3 0  9995,2 52375  53.2150 201.4894 0001430  99.8423 260.2731 15.08837547 94441,6917.888,95.438,540.742,538.764,0.0
52375.0,STARLINK-3785,PAYLOAD,2023-12-26 20:47:52,15.08836359,0.0001474,53.2145,197.624,101.9334,258.1824,0.00034717,5.241e-05,0.0,0 STARLINK-3785,1 52375U 22045AW  23360.86658191  .00005241  00000-0  34717-3 0  9990,2 52375  53.2145 197.6240 0001474 101.9334 258.1824 15.08836359 94573,6917.892,95.438,540.776,538.737,0.0
